{
  "norad_id": 66940,
  "name": "STARLINK-36121",
  "history": [
    {
      "epoch": "2026-03-28T19:09:24.764256Z",
      "apogee_km": 476.454790077285,
      "perigee_km": 474.0743295794955,
      "latitude_deg": 3.727713338717325e-05,
      "longitude_deg": 156.03786242629917,
      "height_km": 476.20968281369346,
      "semi_major_axis_km": 6853.40155982839,
      "eccentricity": 0.00017367,
      "inclination_deg": 53.1571,
      "raan_deg": 269.6045,
      "arg_perigee_deg": 92.3125,
      "mean_anomaly_deg": 267.8075,
      "mean_motion_rev_day": 15.30183425
    }
  ]
}