{"fetched_at":"2026-03-29T16:36:15Z","count":15609,"tles":[{"name":"STARLINK-36121","line1":"1 66940U 25286R   26087.79820329  .00016836  00000+0  57955-3 0  9998","line2":"2 66940  53.1571 269.6045 0001736  92.3125 267.8075 15.30183425 18343","category":"Starlink"}]}